{
    "links": {
        "self": "http://www.neowsapp.com/rest/v1/neo/3601670?api_key=iIulBulltgU6a56xZRHN4H3l9WmuAYTsLGpBGhQ2"
    },
    "id": "3601670",
    "neo_reference_id": "3601670",
    "name": "(2012 FQ35)",
    "designation": "2012 FQ35",
    "nasa_jpl_url": "http://ssd.jpl.nasa.gov/sbdb.cgi?sstr=3601670",
    "absolute_magnitude_h": 23.6,
    "estimated_diameter": {
        "kilometers": {
            "estimated_diameter_min": 0.0506471459,
            "estimated_diameter_max": 0.1132504611
        },
        "meters": {
            "estimated_diameter_min": 50.6471458835,
            "estimated_diameter_max": 113.2504610618
        },
        "miles": {
            "estimated_diameter_min": 0.0314706677,
            "estimated_diameter_max": 0.0703705522
        },
        "feet": {
            "estimated_diameter_min": 166.1651821003,
            "estimated_diameter_max": 371.5566426699
        }
    },
    "is_potentially_hazardous_asteroid": false,
    "close_approach_data": [
        {
            "close_approach_date": "2008-11-03",
            "close_approach_date_full": "2008-Nov-03 11:40",
            "epoch_date_close_approach": 1225712400000,
            "relative_velocity": {
                "kilometers_per_second": "9.5297396868",
                "kilometers_per_hour": "34307.0628724734",
                "miles_per_hour": "21317.0747053988"
            },
            "miss_distance": {
                "astronomical": "0.4599862732",
                "lunar": "178.9346602748",
                "kilometers": "68812966.699958084",
                "miles": "42758394.7742421992"
            },
            "orbiting_body": "Earth"
        },
        {
            "close_approach_date": "2009-04-19",
            "close_approach_date_full": "2009-Apr-19 04:42",
            "epoch_date_close_approach": 1240116120000,
            "relative_velocity": {
                "kilometers_per_second": "18.2696203214",
                "kilometers_per_hour": "65770.633157197",
                "miles_per_hour": "40867.3136970372"
            },
            "miss_distance": {
                "astronomical": "0.4620220992",
                "lunar": "179.7265965888",
                "kilometers": "69117521.933248704",
                "miles": "42947636.6209479552"
            },
            "orbiting_body": "Earth"
        },
        {
            "close_approach_date": "2012-03-23",
            "close_approach_date_full": "2012-Mar-23 08:46",
            "epoch_date_close_approach": 1332492360000,
            "relative_velocity": {
                "kilometers_per_second": "10.2704743598",
                "kilometers_per_hour": "36973.7076953362",
                "miles_per_hour": "22974.0240954715"
            },
            "miss_distance": {
                "astronomical": "0.0276319145",
                "lunar": "10.7488147405",
                "kilometers": "4133675.553222115",
                "miles": "2568546.883670587"
            },
            "orbiting_body": "Earth"
        },
        {
            "close_approach_date": "2015-02-24",
            "close_approach_date_full": "2015-Feb-24 06:12",
            "epoch_date_close_approach": 1424758320000,
            "relative_velocity": {
                "kilometers_per_second": "14.9343749314",
                "kilometers_per_hour": "53763.7497531898",
                "miles_per_hour": "33406.7032841417"
            },
            "miss_distance": {
                "astronomical": "0.4082341618",
                "lunar": "158.8030889402",
                "kilometers": "61070961.066515366",
                "miles": "37947735.5468534108"
            },
            "orbiting_body": "Earth"
        },
        {
            "close_approach_date": "2031-04-17",
            "close_approach_date_full": "2031-Apr-17 05:06",
            "epoch_date_close_approach": 1934168760000,
            "relative_velocity": {
                "kilometers_per_second": "17.1832496613",
                "kilometers_per_hour": "61859.6987806811",
                "miles_per_hour": "38437.2111673626"
            },
            "miss_distance": {
                "astronomical": "0.4183569344",
                "lunar": "162.7408474816",
                "kilometers": "62585306.285969728",
                "miles": "38888706.0328411264"
            },
            "orbiting_body": "Earth"
        }
    ],
    "orbital_data": {
        "orbit_id": "14",
        "orbit_determination_date": "2017-04-06 08:50:21",
        "first_observation_date": "2012-03-24",
        "last_observation_date": "2012-04-11",
        "data_arc_in_days": 18,
        "observations_used": 158,
        "orbit_uncertainty": "7",
        "minimum_orbit_intersection": ".0223384",
        "jupiter_tisserand_invariant": "4.956",
        "epoch_osculation": "2459000.5",
        "eccentricity": ".2182624602761483",
        "semi_major_axis": "1.290643637955824",
        "inclination": "18.05643643379121",
        "ascending_node_longitude": "182.486029836649",
        "orbital_period": "535.5597674345414",
        "perihelion_distance": "1.008944582195827",
        "perihelion_argument": "340.4274673886254",
        "aphelion_distance": "1.57234269371582",
        "perihelion_time": "2459205.803444505933",
        "mean_anomaly": "221.9962803102654",
        "mean_motion": ".6721938836527724",
        "equinox": "J2000",
        "orbit_class": {
            "orbit_class_type": "APO",
            "orbit_class_description": "Near-Earth asteroid orbits which cross the Earth’s orbit similar to that of 1862 Apollo",
            "orbit_class_range": "a (semi-major axis) > 1.0 AU; q (perihelion) < 1.017 AU"
        }
    },
    "is_sentry_object": false
}